ONEWEB-0012             
1 44057U 19010A   26096.89202842 -.00000114  00000+0 -33279-3 0  9993
2 44057  87.9046 242.9512 0001846 114.0302 246.1022 13.16595284342180
ONEWEB-0010             
1 44058U 19010B   26096.91736315 -.00000022  00000+0 -90416-4 0  9999
2 44058  87.9048 242.9422 0002034  92.4907 267.6457 13.16594753342239
ONEWEB-0008             
1 44059U 19010C   26096.86669692 -.00000090  00000+0 -26998-3 0  9995
2 44059  87.9047 242.9494 0001530  99.7056 260.4247 13.16594631342348
ONEWEB-0007             
1 44060U 19010D   26096.92121471 -.00000017  00000+0 -80001-4 0  9997
2 44060  87.8927 273.4445 0002027  98.0758 262.0603 13.15548227342000
ONEWEB-0006             
1 44061U 19010E   26096.92517527  .00000091  00000+0  20649-3 0  9990
2 44061  87.8936 273.4004 0001909  91.2921 268.8428 13.15549120342054
ONEWEB-0011             
1 44062U 19010F   26096.89347399 -.00000102  00000+0 -30394-3 0  9998
2 44062  87.8941 273.4157 0001716  86.9608 273.1719 13.15549323342045
ONEWEB-0013             
1 45131U 20008A   26096.87853813 -.00000324  00000+0 -97697-3 0  9991
2 45131  87.8484  67.2083 0001819 114.2647 245.8670 13.09455133296738
ONEWEB-0017             
1 45132U 20008B   26096.91088862 -.00000179  00000+0 -54778-3 0  9992
2 45132  87.8823  50.4524 0002064  76.4662 283.6695 13.10375409298614
ONEWEB-0020             
1 45133U 20008C   26096.88100043 -.00000250  00000+0 -75160-3 0  9993
2 45133  87.8828  50.4514 0001883  81.0199 279.1142 13.10372059299003
ONEWEB-0021             
1 45134U 20008D   26096.89592707 -.00000590  00000+0 -17255-2 0  9994
2 45134  87.8821  50.4704 0001939  82.7952 277.3396 13.10374918299316
ONEWEB-0023             
1 45136U 20008F   26096.90673170 -.00000411  00000+0 -12142-2 0  9994
2 45136  87.8826  50.4475 0001811  85.0299 275.1035 13.10375541298742
ONEWEB-0024             
1 45137U 20008G   26096.87934325 -.00000126  00000+0 -39839-3 0  9999
2 45137  87.8825  50.4413 0001951  80.7373 279.3975 13.10371438298902
ONEWEB-0025             
1 45138U 20008H   26096.95323104 -.00023029  00000+0 -66048-1 0  9993
2 45138  87.8831  50.4128 0001948  95.0168 265.1181 13.10500494299246
ONEWEB-0026             
1 45139U 20008J   26096.89738774  .00000468  00000+0  12856-2 0  9999
2 45139  87.8920  35.2359 0001927  72.5878 287.5461 13.11416434301769
ONEWEB-0028             
1 45140U 20008K   26096.85413332 -.00000738  00000+0 -21183-2 0  9992
2 45140  87.8907  35.2506 0001681  97.5340 262.5979 13.11416200299278
ONEWEB-0032             
1 45141U 20008L   26096.91253461 -.00000129  00000+0 -40546-3 0  9994
2 45141  87.8825  50.4533 0001673  96.2197 263.9121 13.10377767298966
