[{"OBJECT_NAME":"ONEWEB-0012","OBJECT_ID":"2019-010A","EPOCH":"2026-04-06T21:24:31.255488","MEAN_MOTION":13.16595284,"ECCENTRICITY":0.0001846,"INCLINATION":87.9046,"RA_OF_ASC_NODE":242.9512,"ARG_OF_PERICENTER":114.0302,"MEAN_ANOMALY":246.1022,"EPHEMERIS_TYPE":0,"CLASSIFICATION_TYPE":"U","NORAD_CAT_ID":44057,"ELEMENT_SET_NO":999,"REV_AT_EPOCH":34218,"BSTAR":-0.00033278999999999996,"MEAN_MOTION_DOT":-1.14e-06,"MEAN_MOTION_DDOT":0.0},{"OBJECT_NAME":"ONEWEB-0010","OBJECT_ID":"2019-010B","EPOCH":"2026-04-06T22:01:00.176160","MEAN_MOTION":13.16594753,"ECCENTRICITY":0.0002034,"INCLINATION":87.9048,"RA_OF_ASC_NODE":242.9422,"ARG_OF_PERICENTER":92.4907,"MEAN_ANOMALY":267.6457,"EPHEMERIS_TYPE":0,"CLASSIFICATION_TYPE":"U","NORAD_CAT_ID":44058,"ELEMENT_SET_NO":999,"REV_AT_EPOCH":34223,"BSTAR":-9.0416e-05,"MEAN_MOTION_DOT":-2.2e-07,"MEAN_MOTION_DDOT":0.0},{"OBJECT_NAME":"ONEWEB-0008","OBJECT_ID":"2019-010C","EPOCH":"2026-04-06T20:48:02.613888","MEAN_MOTION":13.16594631,"ECCENTRICITY":0.000153,"INCLINATION":87.9047,"RA_OF_ASC_NODE":242.9494,"ARG_OF_PERICENTER":99.7056,"MEAN_ANOMALY":260.4247,"EPHEMERIS_TYPE":0,"CLASSIFICATION_TYPE":"U","NORAD_CAT_ID":44059,"ELEMENT_SET_NO":999,"REV_AT_EPOCH":34234,"BSTAR":-0.00026998,"MEAN_MOTION_DOT":-9e-07,"MEAN_MOTION_DDOT":0.0},{"OBJECT_NAME":"ONEWEB-0007","OBJECT_ID":"2019-010D","EPOCH":"2026-04-06T22:06:32.950944","MEAN_MOTION":13.15548227,"ECCENTRICITY":0.0002027,"INCLINATION":87.8927,"RA_OF_ASC_NODE":273.4445,"ARG_OF_PERICENTER":98.0758,"MEAN_ANOMALY":262.0603,"EPHEMERIS_TYPE":0,"CLASSIFICATION_TYPE":"U","NORAD_CAT_ID":44060,"ELEMENT_SET_NO":999,"REV_AT_EPOCH":34200,"BSTAR":-8.000100000000001e-05,"MEAN_MOTION_DOT":-1.7e-07,"MEAN_MOTION_DDOT":0.0},{"OBJECT_NAME":"ONEWEB-0006","OBJECT_ID":"2019-010E","EPOCH":"2026-04-06T22:12:15.143328","MEAN_MOTION":13.1554912,"ECCENTRICITY":0.0001909,"INCLINATION":87.8936,"RA_OF_ASC_NODE":273.4004,"ARG_OF_PERICENTER":91.2921,"MEAN_ANOMALY":268.8428,"EPHEMERIS_TYPE":0,"CLASSIFICATION_TYPE":"U","NORAD_CAT_ID":44061,"ELEMENT_SET_NO":999,"REV_AT_EPOCH":34205,"BSTAR":0.00020649,"MEAN_MOTION_DOT":9.1e-07,"MEAN_MOTION_DDOT":0.0},{"OBJECT_NAME":"ONEWEB-0011","OBJECT_ID":"2019-010F","EPOCH":"2026-04-06T21:26:36.152736","MEAN_MOTION":13.15549323,"ECCENTRICITY":0.0001716,"INCLINATION":87.8941,"RA_OF_ASC_NODE":273.4157,"ARG_OF_PERICENTER":86.9608,"MEAN_ANOMALY":273.1719,"EPHEMERIS_TYPE":0,"CLASSIFICATION_TYPE":"U","NORAD_CAT_ID":44062,"ELEMENT_SET_NO":999,"REV_AT_EPOCH":34204,"BSTAR":-0.00030394,"MEAN_MOTION_DOT":-1.02e-06,"MEAN_MOTION_DDOT":0.0},{"OBJECT_NAME":"ONEWEB-0013","OBJECT_ID":"2020-008A","EPOCH":"2026-04-06T21:05:05.694432","MEAN_MOTION":13.09455133,"ECCENTRICITY":0.0001819,"INCLINATION":87.8484,"RA_OF_ASC_NODE":67.2083,"ARG_OF_PERICENTER":114.2647,"MEAN_ANOMALY":245.867,"EPHEMERIS_TYPE":0,"CLASSIFICATION_TYPE":"U","NORAD_CAT_ID":45131,"ELEMENT_SET_NO":999,"REV_AT_EPOCH":29673,"BSTAR":-0.00097697,"MEAN_MOTION_DOT":-3.24e-06,"MEAN_MOTION_DDOT":0.0},{"OBJECT_NAME":"ONEWEB-0017","OBJECT_ID":"2020-008B","EPOCH":"2026-04-06T21:51:40.776768","MEAN_MOTION":13.10375409,"ECCENTRICITY":0.0002064,"INCLINATION":87.8823,"RA_OF_ASC_NODE":50.4524,"ARG_OF_PERICENTER":76.4662,"MEAN_ANOMALY":283.6695,"EPHEMERIS_TYPE":0,"CLASSIFICATION_TYPE":"U","NORAD_CAT_ID":45132,"ELEMENT_SET_NO":999,"REV_AT_EPOCH":29861,"BSTAR":-0.0005477800000000001,"MEAN_MOTION_DOT":-1.79e-06,"MEAN_MOTION_DDOT":0.0},{"OBJECT_NAME":"ONEWEB-0020","OBJECT_ID":"2020-008C","EPOCH":"2026-04-06T21:08:38.437152","MEAN_MOTION":13.10372059,"ECCENTRICITY":0.0001883,"INCLINATION":87.8828,"RA_OF_ASC_NODE":50.4514,"ARG_OF_PERICENTER":81.0199,"MEAN_ANOMALY":279.1142,"EPHEMERIS_TYPE":0,"CLASSIFICATION_TYPE":"U","NORAD_CAT_ID":45133,"ELEMENT_SET_NO":999,"REV_AT_EPOCH":29900,"BSTAR":-0.0007516000000000001,"MEAN_MOTION_DOT":-2.5e-06,"MEAN_MOTION_DDOT":0.0},{"OBJECT_NAME":"ONEWEB-0021","OBJECT_ID":"2020-008D","EPOCH":"2026-04-06T21:30:08.098848","MEAN_MOTION":13.10374918,"ECCENTRICITY":0.0001939,"INCLINATION":87.8821,"RA_OF_ASC_NODE":50.4704,"ARG_OF_PERICENTER":82.7952,"MEAN_ANOMALY":277.3396,"EPHEMERIS_TYPE":0,"CLASSIFICATION_TYPE":"U","NORAD_CAT_ID":45134,"ELEMENT_SET_NO":999,"REV_AT_EPOCH":29931,"BSTAR":-0.0017255,"MEAN_MOTION_DOT":-5.9e-06,"MEAN_MOTION_DDOT":0.0},{"OBJECT_NAME":"ONEWEB-0023","OBJECT_ID":"2020-008F","EPOCH":"2026-04-06T21:45:41.618880","MEAN_MOTION":13.10375541,"ECCENTRICITY":0.0001811,"INCLINATION":87.8826,"RA_OF_ASC_NODE":50.4475,"ARG_OF_PERICENTER":85.0299,"MEAN_ANOMALY":275.1035,"EPHEMERIS_TYPE":0,"CLASSIFICATION_TYPE":"U","NORAD_CAT_ID":45136,"ELEMENT_SET_NO":999,"REV_AT_EPOCH":29874,"BSTAR":-0.0012142000000000001,"MEAN_MOTION_DOT":-4.11e-06,"MEAN_MOTION_DDOT":0.0},{"OBJECT_NAME":"ONEWEB-0024","OBJECT_ID":"2020-008G","EPOCH":"2026-04-06T21:06:15.256800","MEAN_MOTION":13.10371438,"ECCENTRICITY":0.0001951,"INCLINATION":87.8825,"RA_OF_ASC_NODE":50.4413,"ARG_OF_PERICENTER":80.7373,"MEAN_ANOMALY":279.3975,"EPHEMERIS_TYPE":0,"CLASSIFICATION_TYPE":"U","NORAD_CAT_ID":45137,"ELEMENT_SET_NO":999,"REV_AT_EPOCH":29890,"BSTAR":-0.00039839000000000004,"MEAN_MOTION_DOT":-1.26e-06,"MEAN_MOTION_DDOT":0.0},{"OBJECT_NAME":"ONEWEB-0025","OBJECT_ID":"2020-008H","EPOCH":"2026-04-06T22:52:39.161856","MEAN_MOTION":13.10500494,"ECCENTRICITY":0.0001948,"INCLINATION":87.8831,"RA_OF_ASC_NODE":50.4128,"ARG_OF_PERICENTER":95.0168,"MEAN_ANOMALY":265.1181,"EPHEMERIS_TYPE":0,"CLASSIFICATION_TYPE":"U","NORAD_CAT_ID":45138,"ELEMENT_SET_NO":999,"REV_AT_EPOCH":29924,"BSTAR":-0.066048,"MEAN_MOTION_DOT":-0.00023029,"MEAN_MOTION_DDOT":0.0},{"OBJECT_NAME":"ONEWEB-0026","OBJECT_ID":"2020-008J","EPOCH":"2026-04-06T21:32:14.300736","MEAN_MOTION":13.11416434,"ECCENTRICITY":0.0001927,"INCLINATION":87.892,"RA_OF_ASC_NODE":35.2359,"ARG_OF_PERICENTER":72.5878,"MEAN_ANOMALY":287.5461,"EPHEMERIS_TYPE":0,"CLASSIFICATION_TYPE":"U","NORAD_CAT_ID":45139,"ELEMENT_SET_NO":999,"REV_AT_EPOCH":30176,"BSTAR":0.0012856,"MEAN_MOTION_DOT":4.68e-06,"MEAN_MOTION_DDOT":0.0},{"OBJECT_NAME":"ONEWEB-0028","OBJECT_ID":"2020-008K","EPOCH":"2026-04-06T20:29:57.118848","MEAN_MOTION":13.114162,"ECCENTRICITY":0.0001681,"INCLINATION":87.8907,"RA_OF_ASC_NODE":35.2506,"ARG_OF_PERICENTER":97.534,"MEAN_ANOMALY":262.5979,"EPHEMERIS_TYPE":0,"CLASSIFICATION_TYPE":"U","NORAD_CAT_ID":45140,"ELEMENT_SET_NO":999,"REV_AT_EPOCH":29927,"BSTAR":-0.0021183,"MEAN_MOTION_DOT":-7.38e-06,"MEAN_MOTION_DDOT":0.0},{"OBJECT_NAME":"ONEWEB-0032","OBJECT_ID":"2020-008L","EPOCH":"2026-04-06T21:54:02.990304","MEAN_MOTION":13.10377767,"ECCENTRICITY":0.0001673,"INCLINATION":87.8825,"RA_OF_ASC_NODE":50.4533,"ARG_OF_PERICENTER":96.2197,"MEAN_ANOMALY":263.9121,"EPHEMERIS_TYPE":0,"CLASSIFICATION_TYPE":"U","NORAD_CAT_ID":45141,"ELEMENT_SET_NO":999,"REV_AT_EPOCH":29896,"BSTAR":-0.00040546,"MEAN_MOTION_DOT":-1.29e-06,"MEAN_MOTION_DDOT":0.0}]